IRIDIUM 63              
1 25286U 98021B   25221.60475592  .00000382  00000+0  12343-3 0  9991
2 25286  86.3934  59.7086 0002314  90.3231 269.8231 14.36577119431510
IRIDIUM 69              
1 25319U 98026A   25221.59228829  .00000448  00000+0  13321-3 0  9990
2 25319  86.3924  72.8443 0002262 152.2843 207.8478 14.41009569430753
IRIDIUM 71              
1 25320U 98026B   25221.59220047  .00000390  00000+0  11481-3 0  9997
2 25320  86.3924  67.5249 0000071  44.0292 316.0913 14.41192925431287
IRIDIUM 73              
1 25344U 98032C   25221.54942703  .00000591  00000+0  14190-3 0  9998
2 25344  86.4413  24.1410 0002422 107.2015 252.9456 14.51763749438302
IRIDIUM 82              
1 25467U 98051A   25221.61000939  .00035002  00000+0  93173-3 0  9992
2 25467  86.3619  83.4215 0083896  93.3596 267.7257 15.34452269432142
